{
"type": "FeatureCollection",
"name": "antiGEL",
"crs": { "type": "name", "properties": { "name": "urn:ogc:def:crs:OGC:1.3:CRS84" } },
"features": [
{ "type": "Feature", "properties": { "Province": "Midelt", "Commune rurale": "Boumia", "Gestionnaire": "Asso boumia pour la lutte contre la grele", "Site d'installation": "TABOUAALITE", "Etat de fonctionnement": "Bon" }, "geometry": { "type": "Point", "coordinates": [ -5.078503071461874, 32.727824358611365 ] } },
{ "type": "Feature", "properties": { "Province": "Midelt", "Commune rurale": "Boumia", "Gestionnaire": "Asso boumia pour la lutte contre la grele", "Site d'installation": "TAMOUAJATE", "Etat de fonctionnement": "Bon" }, "geometry": { "type": "Point", "coordinates": [ -5.055064415042495, 32.723485590079555 ] } },
{ "type": "Feature", "properties": { "Province": "Midelt", "Commune rurale": "Boumia", "Gestionnaire": "Asso boumia pour la lutte contre la grele", "Site d'installation": "AIT MOUSSA OU ALI", "Etat de fonctionnement": "Bon" }, "geometry": { "type": "Point", "coordinates": [ -5.19593394753745, 32.763180283930971 ] } },
{ "type": "Feature", "properties": { "Province": "Midelt", "Commune rurale": "Tanourdi", "Gestionnaire": "ASS Ighlane", "Site d'installation": "IGHLAN", "Etat de fonctionnement": "Bon" }, "geometry": { "type": "Point", "coordinates": [ -5.160432434353424, 32.80437424350572 ] } },
{ "type": "Feature", "properties": { "Province": "Midelt", "Commune rurale": "Tanourdi", "Gestionnaire": "Coop Tadarte", "Site d'installation": "AIT BEN ALLA", "Etat de fonctionnement": "Bon" }, "geometry": { "type": "Point", "coordinates": [ -5.139100807908544, 32.830471161063144 ] } },
{ "type": "Feature", "properties": { "Province": "Midelt", "Commune rurale": "Tanourdi", "Gestionnaire": "Association aghbalou n’aziz", "Site d'installation": "IKHF OUGRSIF", "Etat de fonctionnement": "Nouveau générateur qui sera installé incessamment" }, "geometry": { "type": "Point", "coordinates": [ -5.165370544342602, 32.843115793984168 ] } },
{ "type": "Feature", "properties": { "Province": "Midelt", "Commune rurale": "Tizi Nghachou", "Gestionnaire": "Atlas", "Site d'installation": "BOUTKHOUBAY", "Etat de fonctionnement": "Bon" }, "geometry": { "type": "Point", "coordinates": [ -5.240780406236142, 32.781854565771205 ] } },
{ "type": "Feature", "properties": { "Province": "Midelt", "Commune rurale": "Tizi Nghachou", "Gestionnaire": "Association Tagounte", "Site d'installation": "Ait Haddou", "Etat de fonctionnement": "Bon" }, "geometry": { "type": "Point", "coordinates": [ -5.254121216512595, 32.753512044021058 ] } },
{ "type": "Feature", "properties": { "Province": "Midelt", "Commune rurale": "Ait izdeg", "Gestionnaire": "Association Amalou anti grêle", "Site d'installation": "BREM", "Etat de fonctionnement": "Bon" }, "geometry": { "type": "Point", "coordinates": [ -4.761358736618643, 32.646852816052466 ] } },
{ "type": "Feature", "properties": { "Province": "Midelt", "Commune rurale": "Ait izdeg", "Gestionnaire": "Association Taddamoute", "Site d'installation": "TADAMOUTE", "Etat de fonctionnement": "Bon" }, "geometry": { "type": "Point", "coordinates": [ -4.79152195020979, 32.693080292476111 ] } },
{ "type": "Feature", "properties": { "Province": "Midelt", "Commune rurale": "Ait izdeg", "Gestionnaire": "Association CHROUK", "Site d'installation": "FLILOU", "Etat de fonctionnement": "Nouveau générateur qui sera installé incessamment" }, "geometry": { "type": "Point", "coordinates": [ -4.755419793531017, 32.632299445594363 ] } },
{ "type": "Feature", "properties": { "Province": "Midelt", "Commune rurale": "Itzer", "Gestionnaire": "ASSO de développement et lutte contre la grêle", "Site d'installation": "AIT OUFELA", "Etat de fonctionnement": "Bon" }, "geometry": { "type": "Point", "coordinates": [ -5.053167298530667, 32.931897944567837 ] } },
{ "type": "Feature", "properties": { "Province": "Midelt", "Commune rurale": "Itzer", "Gestionnaire": "Association  Zoulite", "Site d'installation": "AIT BASSOU", "Etat de fonctionnement": "Bon" }, "geometry": { "type": "Point", "coordinates": [ -5.0064591712002, 32.921935385463485 ] } },
{ "type": "Feature", "properties": { "Province": "Midelt", "Commune rurale": "Itzer", "Gestionnaire": "Association ZEGHFOUL", "Site d'installation": "AIT KESSOU", "Etat de fonctionnement": "Bon" }, "geometry": { "type": "Point", "coordinates": [ -5.099476043440176, 32.861410174024961 ] } },
{ "type": "Feature", "properties": { "Province": "Midelt", "Commune rurale": "Itzer", "Gestionnaire": "Association Tichoute", "Site d'installation": "TICHOUTE", "Etat de fonctionnement": "Bon" }, "geometry": { "type": "Point", "coordinates": [ -5.069308070319068, 32.891947249656447 ] } },
{ "type": "Feature", "properties": { "Province": "Midelt", "Commune rurale": "Ait ben yaacoub", "Gestionnaire": "Ait Beni Yacoub Anti grêle", "Site d'installation": "TAFAGOURTE", "Etat de fonctionnement": "Bon" }, "geometry": { "type": "Point", "coordinates": [ -4.896273312976348, 32.999730979346801 ] } },
{ "type": "Feature", "properties": { "Province": "Midelt", "Commune rurale": "Ait ben yaacoub", "Gestionnaire": "Ait Beni Yacoub Anti grêle", "Site d'installation": "TAWKASTE", "Etat de fonctionnement": "Bon" }, "geometry": { "type": "Point", "coordinates": [ -4.841849838139655, 32.984894144135012 ] } },
{ "type": "Feature", "properties": { "Province": "Midelt", "Commune rurale": "Amercid", "Gestionnaire": "Association Aldoun", "Site d'installation": "BOUYACH", "Etat de fonctionnement": "Bon" }, "geometry": { "type": "Point", "coordinates": [ -4.439963266590467, 32.714037728344351 ] } },
{ "type": "Feature", "properties": { "Province": "Midelt", "Commune rurale": "Amercid", "Gestionnaire": "Association Aldoun", "Site d'installation": "AIN TRID", "Etat de fonctionnement": "Bon" }, "geometry": { "type": "Point", "coordinates": [ -4.412108551512353, 32.758387886502788 ] } },
{ "type": "Feature", "properties": { "Province": "Midelt", "Commune rurale": "Amercid", "Gestionnaire": "Association Taghzoute", "Site d'installation": "ANZAL (TAGHAZOUTE)", "Etat de fonctionnement": "Bon" }, "geometry": { "type": "Point", "coordinates": [ -4.477366382129201, 32.833996271009028 ] } },
{ "type": "Feature", "properties": { "Province": "Midelt", "Commune rurale": "Ait Ayach", "Gestionnaire": "Association Toufahate ansgmir", "Site d'installation": "AGLMOUS", "Etat de fonctionnement": "Bon" }, "geometry": { "type": "Point", "coordinates": [ -4.932537350485324, 32.738407650355242 ] } },
{ "type": "Feature", "properties": { "Province": "Midelt", "Commune rurale": "Ait Ayach", "Gestionnaire": "Association Toufahate ansgmir", "Site d'installation": "TABNISSATE", "Etat de fonctionnement": "Bon" }, "geometry": { "type": "Point", "coordinates": [ -4.95650072804334, 32.703804720082715 ] } },
{ "type": "Feature", "properties": { "Province": "Midelt", "Commune rurale": "Ait Ayach", "Gestionnaire": "Association Toufahate ansgmir", "Site d'installation": "OUKHAJA", "Etat de fonctionnement": "Nouveau générateur qui sera installé incessamment (ancien générateur est grillé )" }, "geometry": { "type": "Point", "coordinates": [ -5.024887642672973, 32.602943619236648 ] } },
{ "type": "Feature", "properties": { "Province": "Midelt", "Commune rurale": "Ait Ayach", "Gestionnaire": "Association  Nidae", "Site d'installation": "AIT ALI OU YOUSSEF", "Etat de fonctionnement": "Bon" }, "geometry": { "type": "Point", "coordinates": [ -4.962867945959324, 32.680492442331207 ] } },
{ "type": "Feature", "properties": { "Province": "Midelt", "Commune rurale": "Ait Ayach", "Gestionnaire": "Association  Ithrane", "Site d'installation": "AIT BEN ICHOU", "Etat de fonctionnement": "Bon" }, "geometry": { "type": "Point", "coordinates": [ -4.994382758206586, 32.648479550849807 ] } },
{ "type": "Feature", "properties": { "Province": "Midelt", "Commune rurale": "Ait Ayach", "Gestionnaire": "Association  Adrar", "Site d'installation": "TAMALOUTE", "Etat de fonctionnement": "Bon" }, "geometry": { "type": "Point", "coordinates": [ -5.067799956265692, 32.5633966382726 ] } },
{ "type": "Feature", "properties": { "Province": "Midelt", "Commune rurale": "Tounfite", "Gestionnaire": "Association Al wafa", "Site d'installation": "IMTCHIMEN", "Etat de fonctionnement": "Bon" }, "geometry": { "type": "Point", "coordinates": [ -5.022267574423584, 32.517885815250224 ] } },
{ "type": "Feature", "properties": { "Province": "Midelt", "Commune rurale": "Tounfite", "Gestionnaire": "Association rida", "Site d'installation": "Tounfite", "Etat de fonctionnement": "Bon" }, "geometry": { "type": "Point", "coordinates": [ -5.229133668336766, 32.488382197995499 ] } },
{ "type": "Feature", "properties": { "Province": "Midelt", "Commune rurale": "Aghbalou", "Gestionnaire": "Nahda", "Site d'installation": "TABOUHOUTE", "Etat de fonctionnement": "Bon" }, "geometry": { "type": "Point", "coordinates": [ -5.247917655660456, 32.71737030211041 ] } },
{ "type": "Feature", "properties": { "Province": "Midelt", "Commune rurale": "Aghbalou", "Gestionnaire": "Association Tabbazint", "Site d'installation": "AIT OUAZIZ", "Etat de fonctionnement": "Bon" }, "geometry": { "type": "Point", "coordinates": [ -5.28618240990372, 32.666186789295438 ] } },
{ "type": "Feature", "properties": { "Province": "Midelt", "Commune rurale": "Aghbalou", "Gestionnaire": "Association Abrid Affassi", "Site d'installation": "AIT BOUALI", "Etat de fonctionnement": "Bon" }, "geometry": { "type": "Point", "coordinates": [ -5.215169852586648, 32.56524816119947 ] } },
{ "type": "Feature", "properties": { "Province": "Midelt", "Commune rurale": "Aghbalou", "Gestionnaire": "Association Abrid Affassi", "Site d'installation": "AIT BOUALI", "Etat de fonctionnement": "Bon" }, "geometry": { "type": "Point", "coordinates": [ -5.218495580068184, 32.59001297407714 ] } },
{ "type": "Feature", "properties": { "Province": "Midelt", "Commune rurale": "Aghbalou", "Gestionnaire": "Association malwiya oulya  pour le développement agricole et protection de l’environnement", "Site d'installation": "ALMOU IMGHARNE", "Etat de fonctionnement": "Bon" }, "geometry": { "type": "Point", "coordinates": [ -5.305684641820758, 32.618090512298942 ] } },
{ "type": "Feature", "properties": { "Province": "Midelt", "Commune rurale": "Aghbalou", "Gestionnaire": "Association malwiya oulya  pour le développement agricole et protection de l’environnement", "Site d'installation": "AIT OUAHI OU HAQUI", "Etat de fonctionnement": "Bon" }, "geometry": { "type": "Point", "coordinates": [ -5.322960121224254, 32.69280624142209 ] } },
{ "type": "Feature", "properties": { "Province": "Midelt", "Commune rurale": "Sidi Ayad", "Gestionnaire": "Coopérative Takbelt", "Site d'installation": "Ighejd", "Etat de fonctionnement": "Bon" }, "geometry": { "type": "Point", "coordinates": [ -4.568314687346313, 32.254308855785403 ] } },
{ "type": "Feature", "properties": { "Province": "Midelt", "Commune rurale": "Sidi Ayad", "Gestionnaire": "Coopérative Takbelt", "Site d'installation": "Imider", "Etat de fonctionnement": "Bon" }, "geometry": { "type": "Point", "coordinates": [ -4.654647835796345, 32.351024880196967 ] } },
{ "type": "Feature", "properties": { "Province": "Midelt", "Commune rurale": "Amougar", "Gestionnaire": "Coopérative Afraskou", "Site d'installation": "Afraskou", "Etat de fonctionnement": "Bon" }, "geometry": { "type": "Point", "coordinates": [ -4.943039152192801, 32.349070538488164 ] } },
{ "type": "Feature", "properties": { "Province": "Midelt", "Commune rurale": "Outerbat", "Gestionnaire": "Coopérative Aslatn", "Site d'installation": "Ait Amer", "Etat de fonctionnement": "Bon" }, "geometry": { "type": "Point", "coordinates": [ -5.338170056362256, 32.1310245501503 ] } },
{ "type": "Feature", "properties": { "Province": "Midelt", "Commune rurale": "Ait Yahya", "Gestionnaire": "Association Bouysghi", "Site d'installation": "Tazarine", "Etat de fonctionnement": "Bon" }, "geometry": { "type": "Point", "coordinates": [ -5.109454172285636, 32.272917370913667 ] } },
{ "type": "Feature", "properties": { "Province": "Midelt", "Commune rurale": "Imilchil", "Gestionnaire": "Coopérative Salihin", "Site d'installation": "Tilmi", "Etat de fonctionnement": "Bon" }, "geometry": { "type": "Point", "coordinates": [ -5.471685247768078, 32.187066411408978 ] } },
{ "type": "Feature", "properties": { "Province": "Midelt", "Commune rurale": "Bouzmou", "Gestionnaire": "Coopérative Aassif Mloul", "Site d'installation": "Douar Tanobdit", "Etat de fonctionnement": "Bon" }, "geometry": { "type": "Point", "coordinates": [ -5.525913597216469, 32.088827598372248 ] } },
{ "type": "Feature", "properties": { "Province": "Midelt", "Commune rurale": "Bouzmou", "Gestionnaire": "Cooperative  tadghmamt", "Site d'installation": "Azaghr yis", "Etat de fonctionnement": "Nouveau générateur qui sera installé incessamment" }, "geometry": { "type": "Point", "coordinates": [ -5.425484805967653, 32.115045962129074 ] } },
{ "type": "Feature", "properties": { "Province": "Midelt", "Commune rurale": "Bouzmou", "Gestionnaire": "Cooperative zaimouzn", "Site d'installation": "Ait ali iko", "Etat de fonctionnement": "Nouveau générateur qui sera installé incessamment" }, "geometry": { "type": "Point", "coordinates": [ -5.572108836822792, 32.145034783430859 ] } },
{ "type": "Feature", "properties": { "Province": "Tinghir", "Commune rurale": "Msemrir", "Gestionnaire": "GIE Unité des pommes de Msemrir", "Site d'installation": "Msemrir", "Etat de fonctionnement": "Bon" }, "geometry": { "type": "Point", "coordinates": [ -5.8958, 31.6922 ] } },
{ "type": "Feature", "properties": { "Province": "Tinghir", "Commune rurale": "Ait Hani", "Gestionnaire": "GIE Unité des pommes de Ait Hani", "Site d'installation": "Ait Hani", "Etat de fonctionnement": "Bon" }, "geometry": { "type": "Point", "coordinates": [ -5.4789, 31.8286 ] } },
{ "type": "Feature", "properties": { "Province": "Tinghir", "Commune rurale": "Ait Hani", "Gestionnaire": "GIE Unité des pommes de Ait Hani", "Site d'installation": "Ait Hani", "Etat de fonctionnement": null }, "geometry": { "type": "Point", "coordinates": [ -5.4825, 31.8194 ] } },
{ "type": "Feature", "properties": { "Province": "Ouarzazate", "Commune rurale": "Telouat", "Gestionnaire": "GIE Unité des pommes de Telouat", "Site d'installation": "Telouat", "Etat de fonctionnement": "Bon" }, "geometry": { "type": "Point", "coordinates": [ -7.2683, 31.3011 ] } }
]
}
